[{"OBJECT_NAME":"STARLINK-34848","OBJECT_ID":"2025-191Z","EPOCH":"2026-03-09T15:13:22.082304","MEAN_MOTION":15.05648129,"ECCENTRICITY":0.0003019,"INCLINATION":97.6015,"RA_OF_ASC_NODE":301.5112,"ARG_OF_PERICENTER":78.1384,"MEAN_ANOMALY":282.0182,"EPHEMERIS_TYPE":0,"CLASSIFICATION_TYPE":"U","NORAD_CAT_ID":65402,"ELEMENT_SET_NO":999,"REV_AT_EPOCH":3026,"BSTAR":0.00031739,"MEAN_MOTION_DOT":4.522e-5,"MEAN_MOTION_DDOT":0},{"OBJECT_NAME":"IRIDIUM 33 DEB","OBJECT_ID":"1997-051ABJ","EPOCH":"2026-03-07T11:02:11.153184","MEAN_MOTION":15.04355632,"ECCENTRICITY":0.00105712,"INCLINATION":86.348,"RA_OF_ASC_NODE":321.5871,"ARG_OF_PERICENTER":86.7515,"MEAN_ANOMALY":38.318,"EPHEMERIS_TYPE":0,"CLASSIFICATION_TYPE":"U","NORAD_CAT_ID":40996,"ELEMENT_SET_NO":999,"REV_AT_EPOCH":63758,"BSTAR":0.0045408492,"MEAN_MOTION_DOT":0.00063892,"MEAN_MOTION_DDOT":0}]
